AMC-1 (GE-1)            
1 24315U 96054A   23297.52132772  .00000061  00000+0  00000+0 0  9996
2 24315   6.7936  68.7554 0009125 180.3600 175.7058  0.99506716 36610
AMC-3 (GE-3)            
1 24936U 97050A   23297.40198889 -.00000262  00000+0  00000+0 0  9994
2 24936   5.7570  74.6215 0002800 144.1760 246.4893  1.00272271 42743
ASTRA 1G                
1 25071U 97076A   23297.60361920 -.00000287  00000+0  00000+0 0  9990
2 25071   7.2559  63.4021 0010377 129.1524 207.0555  0.99040036 94797
ASTRA 2A                
1 25462U 98050A   23297.51012391  .00000066  00000+0  00000+0 0  9996
2 25462   4.6433  80.1280 0003121 135.0587  58.3382  1.00272251 36644
NSS-11 (AAP-1)          
1 26554U 00059A   23297.54771742  .00000020  00000+0  00000+0 0  9996
2 26554   0.0486  68.3112 0002772 136.0398 201.5430  1.00273464 31591
AMC-6 (GE-6)            
1 26580U 00067A   23297.47105073  .00000099  00000+0  00000+0 0  9990
2 26580   0.0182 101.0657 0002676 128.7471 193.3794  1.00272381 84209
ASTRA 2C                
1 26853U 01025A   23297.40198831 -.00000260  00000+0  00000+0 0  9996
2 26853   5.7793  74.4378 0002745 144.5296 245.8407  1.00269968 35356
NSS-7                   
1 27414U 02019A   23297.20815538 -.00000159  00000+0  00000+0 0  9999
2 27414   7.0571  67.0112 0002330 156.3555 223.9509  1.00271827 78873
NSS-6                   
1 27603U 02057A   23297.47896980  .00000008  00000+0  00000+0 0  9992
2 27603   2.8652  86.0976 0004663 173.4893 206.5137  0.99121584 76346
AMC-11 (GE-11)          
1 28252U 04017A   23297.50327091 -.00000055  00000+0  00000+0 0  9990
2 28252   0.0583  57.4842 0002290 166.5297 238.7309  1.00270989 71181
AMC-15                  
1 28446U 04041A   23297.50327091 -.00000094  00000+0  00000+0 0  9995
2 28446   0.0282 305.3809 0002571 271.0644 252.3524  1.00270253 69654
NSS-10 (AMC-12)         
1 28526U 05003A   23297.34800074 -.00000252  00000+0  00000+0 0  9998
2 28526   4.0167  81.8785 0002949 119.5612 278.9059  1.00272214 43465
ASTRA 1KR               
1 29055U 06012A   23297.50255295  .00000114  00000+0  00000+0 0  9990
2 29055   0.0164 240.7445 0005004 339.5404  12.4481  1.00269666 36035
AMC-18                  
1 29644U 06054B   23297.48218964 -.00000221  00000+0  00000+0 0  9999
2 29644   0.0438  69.3583 0002436 142.1770 271.7082  1.00270514 61838
ASTRA 1L                
1 31306U 07016A   23297.50255295  .00000114  00000+0  00000+0 0  9997
2 31306   0.0476 357.6670 0004451 245.2284 349.8595  1.00271226 35313
ASTRA 4A (SIRIUS 4)     
1 32299U 07057A   23297.35635493  .00000027  00000+0  00000+0 0  9992
2 32299   0.0182  47.8942 0002862 172.9407 304.7925  1.00271414 41971
AMC-21                  
1 33275U 08038B   23297.47383546  .00000031  00000+0  00000+0 0  9994
2 33275   0.4410  93.5179 0002983 120.6712 224.1276  1.00271255 55799
ASTRA 1M                
1 33436U 08057A   23297.50255295  .00000115  00000+0  00000+0 0  9990
2 33436   0.0602  81.7917 0004510  98.9344  52.0745  1.00274220 36032
CIEL-2                  
1 33453U 08063A   23297.47305226  .00000053  00000+0  00000+0 0  9993
2 33453   0.2602  93.9094 0002836 121.6627 218.5241  1.00272210 54432
NSS-9                   
1 33749U 09008A   23297.52358531  .00000066  00000+0  00000+0 0  9998
2 33749   0.0223  88.3960 0002320 118.8188 197.0032  1.00269876 53820
SES-7 (PROTOSTAR 2)     
1 34941U 09027A   23297.64683925 -.00000351  00000+0  00000+0 0  9993
2 34941   0.1053  83.7648 0001448 150.1047 140.0461  1.00269527 52929
NSS-12                  
1 36032U 09058A   23297.51299275  .00000066  00000+0  00000+0 0  9999
2 36032   0.0039 283.3033 0002956 302.0180  49.0229  1.00272019 51224
SES-1                   
1 36516U 10016A   23297.49771380 -.00000120  00000+0  00000+0 0  9993
2 36516   0.0199   4.6157 0002633 212.2077 254.0189  1.00270497 49350
ASTRA 3B                
1 36581U 10021A   23297.50342317  .00000131  00000+0  00000+0 0  9998
2 36581   0.0530 352.4926 0003059 202.6193  42.3002  1.00269811 49185
SES-3                   
1 37748U 11035A   23297.50327091 -.00000107  00000+0  00000+0 0  9996
2 37748   0.0608  68.4448 0002790 148.9263 253.4769  1.00271040 45000
ASTRA 1N                
1 37775U 11041A   23297.50255295  .00000114  00000+0  00000+0 0  9996
2 37775   0.0746  50.3581 0000636  97.0638  85.3809  1.00271290 34831
SES-2                   
1 37809U 11049A   23297.48140644 -.00000201  00000+0  00000+0 0  9998
2 37809   0.0189 300.6047 0002473 267.1757 271.1806  1.00271904 44274
QUETZSAT 1              
1 37826U 11054A   23297.48340795 -.00000247  00000+0  00000+0 0  9992
2 37826   0.0434  69.6695 0002649 163.8418 256.1711  1.00269826 44401
SES-4                   
1 38087U 12007A   23297.35104654 -.00000173  00000+0  00000+0 0  9997
2 38087   0.0093  40.3082 0002829 189.4980 267.0842  1.00269826 42545
SES-5                   
1 38652U 12036A   23297.28482233  .00000028  00000+0  00000+0 0  9999
2 38652   0.0490 298.4497 0001984 270.0315 291.4892  1.00270415 34790
ASTRA 2F                
1 38778U 12051A   23297.50438042  .00000144  00000+0  00000+0 0  9998
2 38778   0.0478 242.5107 0004353 335.5192  24.4058  1.00270126 31431
SES-6                   
1 39172U 13026A   23297.34739159 -.00000266  00000+0  00000+0 0  9991
2 39172   0.0313  42.8933 0001963 168.9077 265.2703  1.00270051 38032
O3B FM5                 
1 39188U 13031A   23297.20691977 -.00000019  00000+0  00000+0 0  9990
2 39188   0.0350 359.2292 0002992 211.0518 149.7071  5.00115635188665
O3B FM4                 
1 39189U 13031B   23296.66287935 -.00000018  00000+0  00000+0 0  9994
2 39189   0.0606  12.4376 0002954 197.5342 150.0169  5.00116123188657
O3B FM2                 
1 39190U 13031C   23296.95476327 -.00000018  00000+0  00000+0 0  9993
2 39190   0.0651  14.4568 0002795 196.0161 149.5163  5.00115288188726
O3B PFM                 
1 39191U 13031D   23296.18098694 -.00000018  00000+0  00000+0 0  9996
2 39191   0.0436   3.1372 0002566 207.5885 149.2651  5.00115927188249
ASTRA 2E                
1 39285U 13056A   23297.50438042  .00000145  00000+0  00000+0 0  9999
2 39285   0.0722 326.6212 0002490 258.5555  17.5532  1.00270636 36740
SES-8                   
1 39460U 13071A   23297.57404442 -.00000276  00000+0  00000+0 0  9991
2 39460   0.0255 258.0026 0001522 271.4753 164.9136  1.00273126 34737
ASTRA 5B                
1 39617U 14011B   23297.50342317  .00000131  00000+0  00000+0 0  9994
2 39617   0.0648 308.2935 0003596 280.6534   8.4435  1.00270583 34970
O3B FM3                 
1 40079U 14038A   23297.43467740 -.00000019  00000+0  00000+0 0  9993
2 40079   0.0531  10.5094 0000560 262.2918  87.1979  5.00116638164687
O3B FM7                 
1 40080U 14038B   23296.58178345 -.00000018  00000+0  00000+0 0  9999
2 40080   0.0549  14.8585 0004344 186.6747 158.4542  5.00115843169470
O3B FM6                 
1 40081U 14038C   23297.20814934 -.00000019  00000+0  00000+0 0  9992
2 40081   0.0541  10.0856 0002629 201.0037 148.9005  5.00115131169456
O3B FM8                 
1 40082U 14038D   23297.26168185 -.00000019  00000+0  00000+0 0  9999
2 40082   0.0543  11.0693 0002631 203.8435 145.0755  5.00115215169569
O3B FM10                
1 40348U 14083A   23297.28816903 -.00000019  00000+0  00000+0 0  9994
2 40348   0.0486   1.9659 0002624 210.3113 147.7121  5.00115273161526
O3B FM11                
1 40349U 14083B   23297.30145632 -.00000019  00000+0  00000+0 0  9992
2 40349   0.0456   6.4866 0003089 194.8585 158.6475  5.00115455161546
O3B FM12                
1 40350U 14083C   23296.52917824 -.00000018  00000+0  00000+0 0  9996
2 40350   0.0466   6.4470 0002602 200.1886 153.3567  5.00115420161518
O3B FM9                 
1 40351U 14083D   23297.35523611 -.00000019  00000+0  00000+0 0  9997
2 40351   0.0446   7.3531 0002695 203.9840 148.6523  5.00114964161700
ASTRA 2G                
1 40364U 14089A   23297.50438042  .00000144  00000+0  00000+0 0  9995
2 40364   0.0485  31.1607 0001156  68.0226 143.2629  1.00273251 32329
SES-9                   
1 41380U 16013A   23297.57967109 -.00000351  00000+0  00000+0 0  9992
2 41380   0.0169 284.3298 0001348 222.7103 202.6826  1.00270711 27748
SES-10                  
1 42432U 17017A   23297.48540948 -.00000278  00000+0  00000+0 0  9992
2 42432   0.0324  81.0007 0002530 131.6174 287.8915  1.00270019 24056
SES-15                  
1 42709U 17026A   23297.47305226  .00000055  00000+0  00000+0 0  9998
2 42709   0.0258  22.0871 0000376 163.9537 247.7347  1.00268126 24443
SES-11 (ECHOSTAR 105)   
1 42967U 17063A   23297.50327091 -.00000095  00000+0  00000+0 0  9998
2 42967   0.0169 276.8112 0002304 329.4263 222.6580  1.00271752 22038
SES-14                  
1 43175U 18012B   23297.48923847 -.00000284  00000+0  00000+0 0  9993
2 43175   0.0195 295.4005 0001094 266.2736 319.6156  1.00270433 21372
O3B FM15                
1 43231U 18024A   23297.42134729 -.00000019  00000+0  00000+0 0  9992
2 43231   0.0506 358.8040 0002664 210.6518 150.5346  5.00114458102662
O3B FM16                
1 43232U 18024B   23297.07457785 -.00000019  00000+0  00000+0 0  9994
2 43232   0.0525 354.5656 0002713 214.2856 151.1392  5.00116202102566
O3B FM14                
1 43233U 18024C   23297.31454781 -.00000019  00000+0  00000+0 0  9995
2 43233   0.0538 353.6271 0002898 214.3298 152.0330  5.00115696102589
O3B FM13                
1 43234U 18024D   23295.96900656 -.00000018  00000+0  00000+0 0  9991
2 43234   0.0454  17.0338 0002320 178.1197 164.8454  5.00115937102639
SES-12                  
1 43488U 18049A   23297.07410650 -.00000275  00000+0  00000+0 0  9998
2 43488   0.0285  58.9127 0002205 191.6097 263.4045  1.00271103 19726
O3B FM20                
1 44112U 19020A   23297.34122874 -.00000019  00000+0  00000+0 0  9997
2 44112   0.0492   2.3737 0002747 199.7235 157.8964  5.00115669 83203
O3B FM19                
1 44113U 19020B   23294.56976743 -.00000016  00000+0  00000+0 0  9998
2 44113   0.0336   2.4319 0004027 199.4195 158.1380  5.00116071 82925
O3B FM17                
1 44114U 19020C   23296.84868901 -.00000018  00000+0  00000+0 0  9990
2 44114   0.0688   0.1835 0002625 205.7585 154.0504  5.00116005 83134
O3B FM18                
1 44115U 19020D   23297.19490524 -.00000019  00000+0  00000+0 0  9993
2 44115   0.0488   2.2488 0002702 209.6610 148.0794  5.00115968 83263
SES-17                  
1 49332U 21095A   23297.48540948 -.00000277  00000+0  00000+0 0  9998
2 49332   0.0127 224.4776 0001180 340.6534 295.1449  1.00266920  8154
SES-22                  
1 52933U 22071A   23297.47183394  .00000082  00000+0  00000+0 0  9994
2 52933   0.0147 267.9746 0001144 311.5932 207.9543  1.00273686  4840
SES-20                  
1 53960U 22123A   23297.50327091 -.00000106  00000+0  00000+0 0  9999
2 53960   0.0314 132.4444 0001577 343.5323 354.7666  1.00269789  3853
SES-21                  
1 53961U 22123B   23296.66217583  .00000065  00000+0  00000+0 0  9993
2 53961   0.0078 268.7529 0001023 302.4883 288.0321  1.00268558  3859
O3B MPOWER F1           
1 54755U 22174A   23297.43963480 -.00000019  00000+0  00000+0 0  9991
2 54755   0.0513  19.1124 0005254 208.8117  74.0491  5.00118373 16996
O3B MPOWER F2           
1 54756U 22174B   23297.58338348 -.00000019  00000+0  00000+0 0  9997
2 54756   0.0537  18.9597 0007699 239.0233 101.9361  5.00113478 17071
SES-18                  
1 55970U 23038A   23297.38796036 -.00000106  00000+0  00000+0 0  9993
2 55970   0.0177 251.0797 0002751 349.6652 188.3593  1.00270749  2407
SES-19                  
1 55971U 23038B   23297.47192097  .00000083  00000+0  00000+0 0  9994
2 55971   0.0124 224.2467 0001644 354.8556 208.4789  1.00271152  2373
O3B MPOWER F4           
1 56367U 23059A   23297.30449560 -.00000019  00000+0  00000+0 0  9999
2 56367   0.0376   6.0093 0006700 219.3972 134.5442  5.00114919 10227
O3B MPOWER F3           
1 56368U 23059B   23297.00482964 -.00000018  00000+0  00000+0 0  9991
2 56368   0.0366   2.8654 0003319 243.5534 113.5518  5.00114689  6354
